NORAD_CAT_ID,OBJECT_NAME,OBJECT_TYPE,EPOCH,MEAN_MOTION,ECCENTRICITY,INCLINATION,RA_OF_ASC_NODE,ARG_OF_PERICENTER,MEAN_ANOMALY,BSTAR,MEAN_MOTION_DOT,MEAN_MOTION_DDOT,TLE_LINE0,TLE_LINE1,TLE_LINE2,SEMIMAJOR_AXIS,PERIOD,APOGEE,PERIGEE,DECAYED
52876.0,STARLINK-4200,PAYLOAD,2023-06-10 19:38:28,15.08837093,0.0001032,53.2153,196.1858,87.035,273.076,3.384e-05,2.51e-06,0.0,0 STARLINK-4200,1 52876U 22062AY  23161.81838366  .00000251  00000-0  33840-4 0  9996,2 52876  53.2153 196.1858 0001032  87.0350 273.0760 15.08837093 54666,6917.889,95.438,540.468,539.04,0.0
52876.0,STARLINK-4200,PAYLOAD,2023-06-11 11:32:19,15.08843181,9.93e-05,53.2151,193.2115,86.3509,273.7596,5.4158e-05,5.74e-06,0.0,0 STARLINK-4200,1 52876U 22062AY  23162.48077908  .00000574  00000-0  54158-4 0  9990,2 52876  53.2151 193.2115 0000993  86.3509 273.7596 15.08843181 55256,6917.871,95.437,540.423,539.049,0.0
52876.0,STARLINK-4200,PAYLOAD,2023-06-11 19:29:14,15.08841897,9.74e-05,53.2152,191.7245,86.6026,273.5077,6.3075e-05,7.16e-06,0.0,0 STARLINK-4200,1 52876U 22062AY  23162.81197900  .00000716  00000-0  63075-4 0  9998,2 52876  53.2152 191.7245 0000974  86.6026 273.5077 15.08841897 54815,6917.875,95.437,540.413,539.066,0.0
52876.0,STARLINK-4200,PAYLOAD,2023-06-12 08:12:20,15.08839714,9.59e-05,53.215,189.3457,84.5576,275.5525,9.4381e-05,1.215e-05,0.0,0 STARLINK-4200,1 52876U 22062AY  23163.34189934  .00001215  00000-0  94381-4 0  9994,2 52876  53.2150 189.3457 0000959  84.5576 275.5525 15.08839714 54894,6917.881,95.438,540.41,539.083,0.0
52876.0,STARLINK-4200,PAYLOAD,2023-06-12 19:20:02,15.08840626,9.5e-05,53.2151,187.2641,82.7454,277.3646,5.0997e-05,5.24e-06,0.0,0 STARLINK-4200,1 52876U 22062AY  23163.80557982  .00000524  00000-0  50997-4 0  9994,2 52876  53.2151 187.2641 0000950  82.7454 277.3646 15.08840626 55454,6917.878,95.438,540.401,539.086,0.0
52876.0,STARLINK-4200,PAYLOAD,2023-06-13 01:41:34,15.08838051,0.0001024,53.2146,186.0751,83.26,276.8508,-1.9854e-05,-6.04e-06,0.0,0 STARLINK-4200,1 52876U 22062AY  23164.07054393 -.00000604  00000-0 -19854-4 0  9990,2 52876  53.2146 186.0751 0001024  83.2600 276.8508 15.08838051 55000,6917.886,95.438,540.46,539.043,0.0
52876.0,STARLINK-4200,PAYLOAD,2023-06-13 06:27:44,15.08837156,0.0001014,53.2151,185.1828,84.212,275.8987,-2.606e-05,-7.02e-06,0.0,0 STARLINK-4200,1 52876U 22062AY  23164.26926456 -.00000702  00000-0 -26060-4 0  9995,2 52876  53.2151 185.1828 0001014  84.2120 275.8987 15.08837156 55036,6917.889,95.438,540.456,539.053,0.0
52876.0,STARLINK-4200,PAYLOAD,2023-06-14 11:04:40,15.08838048,0.000104,53.2153,179.8305,83.4358,276.6753,1.2788e-06,-2.67e-06,0.0,0 STARLINK-4200,1 52876U 22062AY  23165.46158393 -.00000267  00000-0  12788-5 0  9993,2 52876  53.2153 179.8305 0001040  83.4358 276.6753 15.08838048 55706,6917.886,95.438,540.471,539.032,0.0
52876.0,STARLINK-4200,PAYLOAD,2023-06-14 17:26:13,15.08837246,0.0001043,53.2153,178.6408,83.6899,276.4212,-4.1339e-06,-3.54e-06,0.0,0 STARLINK-4200,1 52876U 22062AY  23165.72654489 -.00000354  00000-0 -41339-5 0  9991,2 52876  53.2153 178.6408 0001043  83.6899 276.4212 15.08837246 55259,6917.889,95.438,540.475,539.032,0.0
52876.0,STARLINK-4200,PAYLOAD,2023-06-15 07:44:41,15.08836264,9.93e-05,53.2152,175.964,85.852,274.2586,4.5176e-05,4.31e-06,0.0,0 STARLINK-4200,1 52876U 22062AY  23166.32270500  .00000431  00000-0  45176-4 0  9992,2 52876  53.2152 175.9640 0000993  85.8520 274.2586 15.08836264 55343,6917.892,95.438,540.444,539.07,0.0
52876.0,STARLINK-4200,PAYLOAD,2023-06-15 17:17:00,15.0883507,9.95e-05,53.2152,174.1798,83.9741,276.1365,3.5096e-05,2.71e-06,0.0,0 STARLINK-4200,1 52876U 22062AY  23166.72014715  .00000271  00000-0  35096-4 0  9992,2 52876  53.2152 174.1798 0000995  83.9741 276.1365 15.08835070 55894,6917.895,95.438,540.449,539.072,0.0
52876.0,STARLINK-4200,PAYLOAD,2023-06-16 07:35:28,15.08837064,0.0001009,53.2152,171.5036,84.9767,275.1341,4.0038e-05,3.49e-06,0.0,0 STARLINK-4200,1 52876U 22062AY  23167.31630728  .00000349  00000-0  40038-4 0  9994,2 52876  53.2152 171.5036 0001009  84.9767 275.1341 15.08837064 55490,6917.889,95.438,540.452,539.056,0.0
52876.0,STARLINK-4200,PAYLOAD,2023-06-16 17:07:47,15.08837582,0.0001055,53.2156,169.7192,84.9193,275.192,4.1179e-05,3.68e-06,0.0,0 STARLINK-4200,1 52876U 22062AY  23167.71374739  .00000368  00000-0  41179-4 0  9993,2 52876  53.2156 169.7192 0001055  84.9193 275.1920 15.08837582 55555,6917.888,95.438,540.483,539.023,0.0
52876.0,STARLINK-4200,PAYLOAD,2023-06-17 01:04:43,15.08839084,0.0001056,53.2156,168.2326,86.7254,273.3859,3.4347e-05,2.59e-06,0.0,0 STARLINK-4200,1 52876U 22062AY  23168.04494690  .00000259  00000-0  34347-4 0  9997,2 52876  53.2156 168.2326 0001056  86.7254 273.3859 15.08839084 56097,6917.883,95.438,540.479,539.018,0.0
52876.0,STARLINK-4200,PAYLOAD,2023-06-17 07:26:15,15.08839824,0.0001057,53.2157,167.0431,86.5828,273.5285,4.3059e-05,3.98e-06,0.0,0 STARLINK-4200,1 52876U 22062AY  23168.30990623  .00000398  00000-0  43059-4 0  9997,2 52876  53.2157 167.0431 0001057  86.5828 273.5285 15.08839824 55645,6917.881,95.438,540.477,539.015,0.0
52876.0,STARLINK-4200,PAYLOAD,2023-06-17 16:58:34,15.08837267,0.0001052,53.2157,165.259,85.5148,274.5964,2.6226e-05,1.3e-06,0.0,0 STARLINK-4200,1 52876U 22062AY  23168.70734859  .00000130  00000-0  26226-4 0  9999,2 52876  53.2157 165.2590 0001052  85.5148 274.5964 15.08837267 55701,6917.889,95.438,540.482,539.026,0.0
52876.0,STARLINK-4200,PAYLOAD,2023-06-18 08:52:26,15.0883653,0.0001078,53.2158,162.2846,85.1799,274.9317,9.3445e-06,-1.39e-06,0.0,0 STARLINK-4200,1 52876U 22062AY  23169.36975088 -.00000139  00000-0  93445-5 0  9991,2 52876  53.2158 162.2846 0001078  85.1799 274.9317 15.08836530 56292,6917.891,95.438,540.502,539.01,0.0
52876.0,STARLINK-4200,PAYLOAD,2023-06-18 16:49:22,15.08836771,0.0001061,53.2155,160.7981,85.3779,274.7334,9.5246e-06,-1.36e-06,0.0,0 STARLINK-4200,1 52876U 22062AY  23169.70095116 -.00000136  00000-0  95246-5 0  9992,2 52876  53.2155 160.7981 0001061  85.3779 274.7334 15.08836771 55859,6917.89,95.438,540.489,539.021,0.0
52876.0,STARLINK-4200,PAYLOAD,2023-06-19 08:43:13,15.08839225,0.000107,53.2152,157.8242,85.3596,274.7518,1.7965e-05,-2e-08,0.0,0 STARLINK-4200,1 52876U 22062AY  23170.36334993 -.00000002  00000-0  17965-4 0  9998,2 52876  53.2152 157.8242 0001070  85.3596 274.7518 15.08839225 55952,6917.883,95.438,540.488,539.008,0.0
52876.0,STARLINK-4200,PAYLOAD,2023-06-19 16:40:09,15.08830426,0.0001054,53.2145,156.3372,84.4968,275.6145,-3.2892e-05,-8.11e-06,0.0,0 STARLINK-4200,1 52876U 22062AY  23170.69455830 -.00000811  00000-0 -32892-4 0  9993,2 52876  53.2145 156.3372 0001054  84.4968 275.6145 15.08830426 56497,6917.91,95.438,540.504,539.046,0.0
52876.0,STARLINK-4200,PAYLOAD,2023-06-20 08:34:02,15.08823678,0.0001076,53.2147,153.3644,81.8529,278.2585,-6.8458e-05,-1.377e-05,0.0,0 STARLINK-4200,1 52876U 22062AY  23171.35696914 -.00001377  00000-0 -68458-4 0  9992,2 52876  53.2147 153.3644 0001076  81.8529 278.2585 15.08823678 56595,6917.93,95.439,540.54,539.051,0.0
52876.0,STARLINK-4200,PAYLOAD,2023-06-21 02:03:16,15.08833393,0.00012,53.2167,150.0929,89.8737,270.2393,1.4195e-05,-6.2e-07,0.0,0 STARLINK-4200,1 52876U 22062AY  23172.08560464 -.00000062  00000-0  14195-4 0  9991,2 52876  53.2167 150.0929 0001200  89.8737 270.2393 15.08833393 56702,6917.901,95.438,540.596,538.935,0.0
52876.0,STARLINK-4200,PAYLOAD,2023-06-21 08:24:48,15.08837898,0.0001112,53.2162,148.9031,90.4758,269.6361,1.6245e-05,-2.9e-07,0.0,0 STARLINK-4200,1 52876U 22062AY  23172.35056287 -.00000029  00000-0  16245-4 0  9995,2 52876  53.2162 148.9031 0001112  90.4758 269.6361 15.08837898 56251,6917.887,95.438,540.521,538.983,0.0
52876.0,STARLINK-4200,PAYLOAD,2023-06-22 01:54:02,15.08840215,0.000107,53.2156,145.6338,87.9623,272.1492,0.00017393,2.481e-05,0.0,0 STARLINK-4200,1 52876U 22062AY  23173.07919655  .00002481  00000-0  17393-3 0  9999,2 52876  53.2156 145.6338 0001070  87.9623 272.1492 15.08840215 56850,6917.88,95.438,540.485,539.005,0.0
52876.0,STARLINK-4200,PAYLOAD,2023-06-22 08:15:34,15.08849416,0.0001029,53.2156,144.4438,86.0439,274.0671,0.00019539,2.824e-05,0.0,0 STARLINK-4200,1 52876U 22062AY  23173.34415017  .00002824  00000-0  19539-3 0  9997,2 52876  53.2156 144.4438 0001029  86.0439 274.0671 15.08849416 56893,6917.852,95.437,540.428,539.005,0.0
52876.0,STARLINK-4200,PAYLOAD,2023-06-22 14:37:08,15.08837605,0.0001526,53.2152,143.2541,79.6807,280.4357,9.5009e-05,1.224e-05,0.0,0 STARLINK-4200,1 52876U 22062AY  23173.60912282  .00001224  00000-0  95009-4 0  9992,2 52876  53.2152 143.2541 0001526  79.6807 280.4357 15.08837605 56934,6917.888,95.438,540.808,538.697,0.0
52876.0,STARLINK-4200,PAYLOAD,2023-06-23 08:06:21,15.08862445,0.0001308,53.2157,139.983,126.3828,233.7285,-0.00014397,-2.58e-05,0.0,0 STARLINK-4200,1 52876U 22062AY  23174.33775154 -.00002580  00000-0 -14397-3 0  9996,2 52876  53.2157 139.9830 0001308 126.3828 233.7285 15.08862445 57047,6917.812,95.436,540.582,538.772,0.0
52876.0,STARLINK-4200,PAYLOAD,2023-06-23 14:27:55,15.08837122,0.0001163,53.2161,138.7937,116.1056,244.0056,8.1229e-05,1.005e-05,0.0,0 STARLINK-4200,1 52876U 22062AY  23174.60272102  .00001005  00000-0  81229-4 0  9999,2 52876  53.2161 138.7937 0001163 116.1056 244.0056 15.08837122 57085,6917.889,95.438,540.559,538.95,0.0
52876.0,STARLINK-4200,PAYLOAD,2023-06-25 03:01:46,15.08845023,0.0001127,53.216,131.9551,90.9899,269.1222,6.1133e-05,6.85e-06,0.0,0 STARLINK-4200,1 52876U 22062AY  23176.12623505  .00000685  00000-0  61133-4 0  9990,2 52876  53.2160 131.9551 0001127  90.9899 269.1222 15.08845023 57313,6917.865,95.437,540.51,538.95,0.0
52876.0,STARLINK-4200,PAYLOAD,2023-06-26 02:52:34,15.08837343,0.000114,53.2152,127.4932,81.8598,278.2523,5.3735e-05,5.67e-06,0.0,0 STARLINK-4200,1 52876U 22062AY  23177.11984084  .00000567  00000-0  53735-4 0  9990,2 52876  53.2152 127.4932 0001140  81.8598 278.2523 15.08837343 57464,6917.889,95.438,540.542,538.965,0.0
